start=new Date('2022-01-29T00:00:00.000Z').valueOf();
sats=[{"MEAN_MOTION":"15.06400787","ELEMENT_SET_NO":"999","OBJECT_ID":"2020-001D","APOAPSIS":"548.456","NORAD_CAT_ID":"44917","REF_FRAME":"TEME","DECAY_DATE":null,"REV_AT_EPOCH":"11363","TIME_SYSTEM":"UTC","OBJECT_TYPE":"PAYLOAD","MEAN_ELEMENT_THEORY":"SGP4","TLE_LINE2":"2 44917  53.0532 244.2887 0001798  67.6269 292.4911 15.06400787113631","FILE":"3286235","ARG_OF_PERICENTER":"67.6269","EPHEMERIS_TYPE":"0","RCS_SIZE":"LARGE","COUNTRY_CODE":"US","TLE_LINE1":"1 44917U 20001D   22028.81994830  .00000036  00000-0  21346-4 0  9993","MEAN_ANOMALY":"292.4911","RA_OF_ASC_NODE":"244.2887","SEMIMAJOR_AXIS":"6925.346","LAUNCH_DATE":"2020-01-07","BSTAR":"0.00002134600000","PERIOD":"95.592","ECCENTRICITY":"0.00017980","MEAN_MOTION_DOT":"0.00000036","MEAN_MOTION_DDOT":"0.0000000000000","INCLINATION":"53.0532","CENTER_NAME":"EARTH","SITE":"AFETR","CLASSIFICATION_TYPE":"U","OBJECT_NAME":"STARLINK-1098","EPOCH":"2022-01-28T19:40:43.533120","PERIAPSIS":"545.966","GP_ID":"194842467"},{"EPHEMERIS_TYPE":"0","RCS_SIZE":"LARGE","COUNTRY_CODE":"US","TLE_LINE1":"1 44918U 20001E   22028.89735990  .00001311  00000-0  10693-3 0  9991","MEAN_ANOMALY":"287.0976","RA_OF_ASC_NODE":"243.9480","BSTAR":"0.00010693000000","LAUNCH_DATE":"2020-01-07","SEMIMAJOR_AXIS":"6925.378","PERIOD":"95.593","MEAN_MOTION_DOT":"0.00001311","ECCENTRICITY":"0.00016590","MEAN_MOTION_DDOT":"0.0000000000000","INCLINATION":"53.0522","SITE":"AFETR","CENTER_NAME":"EARTH","CLASSIFICATION_TYPE":"U","OBJECT_NAME":"STARLINK-1099","PERIAPSIS":"546.094","EPOCH":"2022-01-28T21:32:11.895360","GP_ID":"194843217","MEAN_MOTION":"15.06390479","ELEMENT_SET_NO":"999","OBJECT_ID":"2020-001E","APOAPSIS":"548.392","NORAD_CAT_ID":"44918","REF_FRAME":"TEME","DECAY_DATE":null,"REV_AT_EPOCH":"11438","TIME_SYSTEM":"UTC","OBJECT_TYPE":"PAYLOAD","TLE_LINE2":"2 44918  53.0522 243.9480 0001659  73.0195 287.0976 15.06390479114381","MEAN_ELEMENT_THEORY":"SGP4","FILE":"3286235","ARG_OF_PERICENTER":"73.0195"},{"ARG_OF_PERICENTER":"69.5355","FILE":"3286235","MEAN_ELEMENT_THEORY":"SGP4","TLE_LINE2":"2 44920  53.0537 243.8734 0001943  69.5355 290.5842 15.06399583113649","OBJECT_TYPE":"PAYLOAD","TIME_SYSTEM":"UTC","REV_AT_EPOCH":"11364","DECAY_DATE":null,"REF_FRAME":"TEME","NORAD_CAT_ID":"44920","APOAPSIS":"548.560","OBJECT_ID":"2020-001G","ELEMENT_SET_NO":"999","MEAN_MOTION":"15.06399583","GP_ID":"194841965","PERIAPSIS":"545.869","EPOCH":"2022-01-28T21:53:25.915200","CLASSIFICATION_TYPE":"U","OBJECT_NAME":"STARLINK-1102","SITE":"AFETR","CENTER_NAME":"EARTH","INCLINATION":"53.0537","MEAN_MOTION_DDOT":"0.0000000000000","MEAN_MOTION_DOT":"0.00001672","ECCENTRICITY":"0.00019430","PERIOD":"95.592","LAUNCH_DATE":"2020-01-07","BSTAR":"0.00013111000000","SEMIMAJOR_AXIS":"6925.350","RA_OF_ASC_NODE":"243.8734","MEAN_ANOMALY":"290.5842","TLE_LINE1":"1 44920U 20001G   22028.91210550  .00001672  00000-0  13111-3 0  9995","COUNTRY_CODE":"US","RCS_SIZE":"LARGE","EPHEMERIS_TYPE":"0"},{"ECCENTRICITY":"0.00023500","MEAN_MOTION_DOT":"-0.00000571","PERIOD":"95.593","INCLINATION":"53.0525","MEAN_MOTION_DDOT":"0.0000000000000","CENTER_NAME":"EARTH","SITE":"AFETR","GP_ID":"194842215","EPOCH":"2022-01-28T20:49:44.583168","PERIAPSIS":"545.616","CLASSIFICATION_TYPE":"U","OBJECT_NAME":"STARLINK-1103","EPHEMERIS_TYPE":"0","COUNTRY_CODE":"US","RCS_SIZE":"LARGE","MEAN_ANOMALY":"287.6754","TLE_LINE1":"1 44921U 20001H   22028.86787712 -.00000571  00000-0 -19448-4 0  9998","SEMIMAJOR_AXIS":"6925.379","LAUNCH_DATE":"2020-01-07","BSTAR":"-0.00001944800000","RA_OF_ASC_NODE":"244.0670","APOAPSIS":"548.871","REV_AT_EPOCH":"11361","DECAY_DATE":null,"REF_FRAME":"TEME","NORAD_CAT_ID":"44921","OBJECT_TYPE":"PAYLOAD","TIME_SYSTEM":"UTC","FILE":"3286235","ARG_OF_PERICENTER":"72.4491","MEAN_ELEMENT_THEORY":"SGP4","TLE_LINE2":"2 44921  53.0525 244.0670 0002350  72.4491 287.6754 15.06390166113610","ELEMENT_SET_NO":"999","MEAN_MOTION":"15.06390166","OBJECT_ID":"2020-001H"},{"INCLINATION":"53.0525","MEAN_MOTION_DDOT":"0.0000000000000","PERIOD":"95.593","ECCENTRICITY":"0.00017010","MEAN_MOTION_DOT":"0.00001450","EPOCH":"2022-01-28T21:37:30.268992","PERIAPSIS":"546.064","OBJECT_NAME":"STARLINK-1104","CLASSIFICATION_TYPE":"U","GP_ID":"194842967","CENTER_NAME":"EARTH","SITE":"AFETR","RCS_SIZE":"LARGE","COUNTRY_CODE":"US","EPHEMERIS_TYPE":"0","SEMIMAJOR_AXIS":"6925.377","LAUNCH_DATE":"2020-01-07","BSTAR":"0.00011625000000","RA_OF_ASC_NODE":"243.9148","MEAN_ANOMALY":"289.3810","TLE_LINE1":"1 44922U 20001J   22028.90104478  .00001450  00000-0  11625-3 0  9999","REF_FRAME":"TEME","NORAD_CAT_ID":"44922","REV_AT_EPOCH":"11364","DECAY_DATE":null,"APOAPSIS":"548.420","TLE_LINE2":"2 44922  53.0525 243.9148 0001701  70.7362 289.3810 15.06390567113646","MEAN_ELEMENT_THEORY":"SGP4","FILE":"3286235","ARG_OF_PERICENTER":"70.7362","TIME_SYSTEM":"UTC","OBJECT_TYPE":"PAYLOAD","OBJECT_ID":"2020-001J","ELEMENT_SET_NO":"999","MEAN_MOTION":"15.06390567"},{"OBJECT_ID":"2020-001K","MEAN_MOTION":"15.06400691","ELEMENT_SET_NO":"999","NORAD_CAT_ID":"44923","REF_FRAME":"TEME","DECAY_DATE":null,"REV_AT_EPOCH":"11363","APOAPSIS":"548.479","MEAN_ELEMENT_THEORY":"SGP4","TLE_LINE2":"2 44923  53.0518 244.0982 0001831  72.1478 287.9711 15.06400691113638","FILE":"3286235","ARG_OF_PERICENTER":"72.1478","TIME_SYSTEM":"UTC","OBJECT_TYPE":"PAYLOAD","RCS_SIZE":"LARGE","COUNTRY_CODE":"US","EPHEMERIS_TYPE":"0","RA_OF_ASC_NODE":"244.0982","LAUNCH_DATE":"2020-01-07","BSTAR":"0.00020225000000","SEMIMAJOR_AXIS":"6925.346","TLE_LINE1":"1 44923U 20001K   22028.86051417  .00002732  00000-0  20225-3 0  9999","MEAN_ANOMALY":"287.9711","MEAN_MOTION_DDOT":"0.0000000000000","INCLINATION":"53.0518","PERIOD":"95.592","ECCENTRICITY":"0.00018310","MEAN_MOTION_DOT":"0.00002732","OBJECT_NAME":"STARLINK-1106","CLASSIFICATION_TYPE":"U","PERIAPSIS":"545.943","EPOCH":"2022-01-28T20:39:08.424288","GP_ID":"194842718","SITE":"AFETR","CENTER_NAME":"EARTH"},{"COUNTRY_CODE":"US","RCS_SIZE":"LARGE","EPHEMERIS_TYPE":"0","RA_OF_ASC_NODE":"244.1545","BSTAR":"-0.00006894800000","LAUNCH_DATE":"2020-01-07","SEMIMAJOR_AXIS":"6925.402","TLE_LINE1":"1 44924U 20001L   22028.84945650 -.00001308  00000-0 -68948-4 0  9994","MEAN_ANOMALY":"280.5781","MEAN_MOTION_DDOT":"0.0000000000000","INCLINATION":"53.0541","MEAN_MOTION_DOT":"-0.00001308","ECCENTRICITY":"0.00022080","PERIOD":"95.593","GP_ID":"194841466","CLASSIFICATION_TYPE":"U","OBJECT_NAME":"STARLINK-1111","EPOCH":"2022-01-28T20:23:13.041600","PERIAPSIS":"545.738","CENTER_NAME":"EARTH","SITE":"AFETR","OBJECT_ID":"2020-001L","MEAN_MOTION":"15.06382484","ELEMENT_SET_NO":"999","DECAY_DATE":null,"REV_AT_EPOCH":"11363","NORAD_CAT_ID":"44924","REF_FRAME":"TEME","APOAPSIS":"548.796","FILE":"3286235","ARG_OF_PERICENTER":"79.5456","TLE_LINE2":"2 44924  53.0541 244.1545 0002208  79.5456 280.5781 15.06382484113632","MEAN_ELEMENT_THEORY":"SGP4","OBJECT_TYPE":"PAYLOAD","TIME_SYSTEM":"UTC"},{"PERIAPSIS":"545.788","EPOCH":"2022-01-28T20:44:26.163744","CLASSIFICATION_TYPE":"U","OBJECT_NAME":"STARLINK-1112","GP_ID":"194841716","CENTER_NAME":"EARTH","SITE":"AFETR","INCLINATION":"53.0534","MEAN_MOTION_DDOT":"0.0000000000000","PERIOD":"95.593","MEAN_MOTION_DOT":"-0.00000844","ECCENTRICITY":"0.00020860","SEMIMAJOR_AXIS":"6925.368","LAUNCH_DATE":"2020-01-07","BSTAR":"-0.00003776100000","RA_OF_ASC_NODE":"244.0816","MEAN_ANOMALY":"297.3540","TLE_LINE1":"1 44925U 20001M   22028.86419171 -.00000844  00000-0 -37761-4 0  9994","RCS_SIZE":"LARGE","COUNTRY_CODE":"US","EPHEMERIS_TYPE":"0","MEAN_ELEMENT_THEORY":"SGP4","TLE_LINE2":"2 44925  53.0534 244.0816 0002086  62.7662 297.3540 15.06393739113636","ARG_OF_PERICENTER":"62.7662","FILE":"3286235","TIME_SYSTEM":"UTC","OBJECT_TYPE":"PAYLOAD","REF_FRAME":"TEME","NORAD_CAT_ID":"44925","REV_AT_EPOCH":"11363","DECAY_DATE":null,"APOAPSIS":"548.677","OBJECT_ID":"2020-001M","ELEMENT_SET_NO":"999","MEAN_MOTION":"15.06393739"},{"COUNTRY_CODE":"US","RCS_SIZE":"LARGE","EPHEMERIS_TYPE":"0","RA_OF_ASC_NODE":"244.0851","SEMIMAJOR_AXIS":"6927.859","LAUNCH_DATE":"2020-01-07","BSTAR":"-0.00001134200000","TLE_LINE1":"1 44926U 20001N   22028.86442448 -.00000445  00000-0 -11342-4 0  9992","MEAN_ANOMALY":"286.0845","MEAN_MOTION_DDOT":"0.0000000000000","INCLINATION":"52.9986","MEAN_MOTION_DOT":"-0.00000445","ECCENTRICITY":"0.00018550","PERIOD":"95.644","GP_ID":"194842468","OBJECT_NAME":"STARLINK-1113","CLASSIFICATION_TYPE":"U","EPOCH":"2022-01-28T20:44:46.275072","PERIAPSIS":"548.439","CENTER_NAME":"EARTH","SITE":"AFETR","OBJECT_ID":"2020-001N","MEAN_MOTION":"15.05581275","ELEMENT_SET_NO":"999","DECAY_DATE":null,"REV_AT_EPOCH":"11435","NORAD_CAT_ID":"44926","REF_FRAME":"TEME","APOAPSIS":"551.009","ARG_OF_PERICENTER":"74.0347","FILE":"3286235","TLE_LINE2":"2 44926  52.9986 244.0851 0001855  74.0347 286.0845 15.05581275114350","MEAN_ELEMENT_THEORY":"SGP4","OBJECT_TYPE":"PAYLOAD","TIME_SYSTEM":"UTC"},{"OBJECT_ID":"2020-001P","MEAN_MOTION":"15.06397293","ELEMENT_SET_NO":"999","FILE":"3286235","ARG_OF_PERICENTER":"73.1725","TLE_LINE2":"2 44927  53.0529 244.3280 0001944  73.1725 286.9477 15.06397293113630","MEAN_ELEMENT_THEORY":"SGP4","OBJECT_TYPE":"PAYLOAD","TIME_SYSTEM":"UTC","DECAY_DATE":null,"REV_AT_EPOCH":"11363","NORAD_CAT_ID":"44927","REF_FRAME":"TEME","APOAPSIS":"548.568","RA_OF_ASC_NODE":"244.3280","LAUNCH_DATE":"2020-01-07","BSTAR":"0.00000286960000","SEMIMAJOR_AXIS":"6925.357","TLE_LINE1":"1 44927U 20001P   22028.80889998 -.00000239  00000-0  28696-5 0  9993","MEAN_ANOMALY":"286.9477","COUNTRY_CODE":"US","RCS_SIZE":"LARGE","EPHEMERIS_TYPE":"0","GP_ID":"194843218","CLASSIFICATION_TYPE":"U","OBJECT_NAME":"STARLINK-1114","PERIAPSIS":"545.876","EPOCH":"2022-01-28T19:24:48.958272","CENTER_NAME":"EARTH","SITE":"AFETR","MEAN_MOTION_DDOT":"0.0000000000000","INCLINATION":"53.0529","MEAN_MOTION_DOT":"-0.00000239","ECCENTRICITY":"0.00019440","PERIOD":"95.592"}];
